[{"OBJECT_NAME":"ONEWEB-0582","OBJECT_ID":"2022-166H","EPOCH":"2026-03-09T23:15:17.554752","MEAN_MOTION":13.21825835,"ECCENTRICITY":0.00011596,"INCLINATION":87.9163,"RA_OF_ASC_NODE":263.7603,"ARG_OF_PERICENTER":87.0279,"MEAN_ANOMALY":273.0988,"EPHEMERIS_TYPE":0,"CLASSIFICATION_TYPE":"U","NORAD_CAT_ID":54649,"ELEMENT_SET_NO":999,"REV_AT_EPOCH":15841,"BSTAR":6.31832e-7,"MEAN_MOTION_DOT":1.3e-7,"MEAN_MOTION_DDOT":0},{"OBJECT_NAME":"SL-14 DEB","OBJECT_ID":"1991-056BH","EPOCH":"2026-03-06T06:58:20.374176","MEAN_MOTION":13.39289459,"ECCENTRICITY":0.00884722,"INCLINATION":82.5817,"RA_OF_ASC_NODE":164.9984,"ARG_OF_PERICENTER":131.5414,"MEAN_ANOMALY":229.3353,"EPHEMERIS_TYPE":0,"CLASSIFICATION_TYPE":"U","NORAD_CAT_ID":45319,"ELEMENT_SET_NO":999,"REV_AT_EPOCH":29347,"BSTAR":0.003041541,"MEAN_MOTION_DOT":1.688e-5,"MEAN_MOTION_DDOT":0}]
